{
  "norad_id": 58781,
  "name": "STARLINK-31099",
  "history": [
    {
      "epoch": "2026-03-28T22:17:40.987968",
      "apogee_km": 476.0419313046259,
      "perigee_km": 474.4478346786418,
      "latitude_deg": -21.409428376876885,
      "longitude_deg": 147.2788755199872,
      "semi_major_axis_km": 6853.381882991634,
      "eccentricity": 0.0001163,
      "inclination_deg": 53.1598,
      "raan_deg": 284.4615,
      "arg_perigee_deg": 92.1173,
      "mean_anomaly_deg": 267.9961,
      "mean_motion_rev_day": 15.30190015
    }
  ]
}